ONEWEB-0144             
1 47290U 20100AJ  26018.56001500 -.00000328  00000+0 -94804-3 0  9991
2 47290  87.8928  20.3412 0001557  99.6463 260.4841 13.12441180244946
ONEWEB-0145             
1 47291U 20100AK  26018.53123132  .00000420  00000+0  11334-2 0  9992
2 47291  87.8932  20.3862 0001733  91.0793 269.0534 13.12441437245130
ONEWEB-0146             
1 47292U 20100AL  26018.52785712  .00000483  00000+0  13072-2 0  9990
2 47292  87.8930  20.3723 0001861  77.5025 282.6311 13.12442771245040
ONEWEB-0147             
1 47293U 20100AM  26018.41770704 -.00000431  00000+0 -12336-2 0  9991
2 47293  87.8931  20.3730 0001497  86.0115 274.1185 13.12443278244924
ONEWEB-0115             
1 48042U 21025A   26018.63906972 -.00000214  00000+0 -62197-3 0  9993
2 48042  87.9013 349.9364 0001791  81.3786 278.7546 13.13468015233961
ONEWEB-0152             
1 48043U 21025B   26018.34793787  .00000104  00000+0  24991-3 0  9996
2 48043  87.9007 349.9984 0001808  78.8186 281.3147 13.13471152233881
ONEWEB-0153             
1 48044U 21025C   26018.63062966 -.00000210  00000+0 -60887-3 0  9991
2 48044  87.9006 349.9486 0001751  85.5430 274.5900 13.13471022233913
ONEWEB-0154             
1 48045U 21025D   26018.62724803 -.00000223  00000+0 -64665-3 0  9998
2 48045  87.9007 349.9461 0001699  81.5553 278.5768 13.13469875233875
